     2.100          NAVIGATION                              RINEX VERSION / TYPE
fic2rin                                 10/20/2012 00:23:46 PGM / RUN BY / DATE
                                                            END OF HEADER
 1 12 10 20  0  0  0.0  .278548337519D-03  .170530256582D-11  .000000000000D+00
     .300000000000D+02 -.546875000000D+01  .495163482689D-08 -.107461174850D+01
    -.288709998131D-06  .132034055423D-02  .645592808723D-05  .515362876511D+04
     .518400000000D+06 -.149011611938D-07  .254194555529D+01  .372529029846D-08
     .960158999368D+00  .253687500000D+03  .471825799998D+00 -.819891294621D-08
     .810748056625D-10  .100000000000D+01  .171000000000D+04  .000000000000D+00
     .240000000000D+01  .000000000000D+00  .838190317154D-08  .300000000000D+02
     .511206000000D+06  .400000000000D+01
 2 12 10 20  0  0  0.0  .406440813094D-03  .113686837722D-11  .000000000000D+00
     .930000000000D+02 -.812500000000D+01  .559237580204D-08 -.917015144562D-01
    -.281259417534D-06  .115133116487D-01  .620447099209D-05  .515376600838D+04
     .518400000000D+06  .931322574615D-07  .252509191247D+01  .117346644402D-06
     .938669944079D+00  .249562500000D+03 -.273126441718D+01 -.865143179543D-08
     .785747015231D-11  .100000000000D+01  .171000000000D+04  .000000000000D+00
     .240000000000D+01  .000000000000D+00 -.176951289177D-07  .930000000000D+02
     .511206000000D+06  .400000000000D+01
 3 12 10 20  0  0  0.0  .116865616292D-03  .500222085975D-11  .000000000000D+00
     .560000000000D+02 -.311875000000D+02  .517450125303D-08  .831969499212D-01
    -.160001218319D-05  .158532371279D-01  .939145684242D-05  .515374661827D+04
     .518400000000D+06 -.204890966415D-06  .135841842349D+01  .163912773132D-06
     .932136537308D+00  .187906250000D+03  .124700328770D+01 -.851678332964D-08
     .431089385175D-09  .100000000000D+01  .171000000000D+04  .000000000000D+00
     .340000000000D+01  .000000000000D+00 -.465661287308D-08  .560000000000D+02
     .511206000000D+06  .400000000000D+01
 4 12 10 20  0  0  0.0  .211787410080D-04  .112549969344D-10  .000000000000D+00
     .850000000000D+02 -.821875000000D+01  .546094175586D-08 -.309838708412D+01
    -.603497028351D-06  .103558928240D-01  .629015266895D-05  .515366960526D+04
     .518400000000D+06  .260770320892D-07  .254179691111D+01 -.216066837311D-06
     .937733837430D+00  .247250000000D+03  .918957133202D+00 -.831784647169D-08
    -.214294640518D-11  .100000000000D+01  .171000000000D+04  .000000000000D+00
     .240000000000D+01  .000000000000D+00 -.651925802231D-08  .850000000000D+02
     .511206000000D+06  .400000000000D+01
 5 12 10 20  0  0  0.0 -.360692851245D-03 -.272848410532D-11  .000000000000D+00
     .600000000000D+02  .304062500000D+02  .485448792319D-08  .205041905006D+01
     .168010592461D-05  .299847882707D-02  .103395432234D-04  .515377158356D+04
     .518400000000D+06 -.465661287308D-07 -.269442055179D+01  .115483999252D-06
     .950392249595D+00  .176250000000D+03  .234830677823D+00 -.804783522464D-08
    -.372872674501D-09  .100000000000D+01  .171000000000D+04  .000000000000D+00
     .240000000000D+01  .000000000000D+00 -.102445483208D-07  .600000000000D+02
     .511206000000D+06  .400000000000D+01
 6 12 10 20  0  0  0.0  .480360817164D-03 -.977706804406D-11  .000000000000D+00
     .190000000000D+02 -.258125000000D+02  .494520598768D-08  .196700713895D+01
    -.134855508804D-05  .734750716947D-02  .930577516556D-05  .515368605614D+04
     .518400000000D+06  .106170773506D-06  .143621796203D+01  .100582838058D-06
     .938880768130D+00  .187812500000D+03 -.428439666940D+00 -.812283834882D-08
     .391444876679D-09  .100000000000D+01  .171000000000D+04  .000000000000D+00
     .240000000000D+01  .000000000000D+00 -.512227416039D-08  .190000000000D+02
     .511206000000D+06  .400000000000D+01
 7 12 10 20  0  0  0.0  .135428272188D-03  .454747350886D-11  .000000000000D+00
     .350000000000D+02 -.146875000000D+02  .423946230491D-08 -.145874000864D+01
    -.810250639915D-06  .604112842120D-02  .282004475594D-05  .515372092438D+04
     .518400000000D+06  .130385160446D-07 -.580434072906D+00 -.875443220139D-07
     .975887330493D+00  .333125000000D+03 -.295575069301D+01 -.818391232137D-08
    -.610739725475D-10  .100000000000D+01  .171000000000D+04  .000000000000D+00
     .240000000000D+01  .000000000000D+00 -.111758708954D-07  .350000000000D+02
     .511206000000D+06  .400000000000D+01
 8 12 10 20  0  0  0.0  .246288254857D-05  .113686837722D-12  .000000000000D+00
     .172000000000D+03 -.281875000000D+02  .377801451233D-08 -.210108748106D+01
    -.155903398991D-05  .127647137269D-01  .315904617310D-05  .515364297295D+04
     .518400000000D+06  .316649675369D-07 -.493983010935D+00 -.210478901863D-06
     .998340001143D+00  .338187500000D+03 -.291410539882D+01 -.791354391658D-08
    -.367872466222D-10  .100000000000D+01  .171000000000D+04  .000000000000D+00
     .240000000000D+01  .000000000000D+00 -.419095158577D-08  .172000000000D+03
     .511206000000D+06  .400000000000D+01
 9 12 10 20  0  0  0.0  .193607993424D-03  .272848410532D-11  .000000000000D+00
     .104000000000D+03 -.113750000000D+02  .407516974718D-08 -.204602302658D+01
    -.320374965668D-06  .172546812100D-01  .204518437386D-05  .515366360664D+04
     .518400000000D+06  .216066837311D-06 -.605119406704D+00  .204890966415D-06
     .984556111971D+00  .351968750000D+03  .164735032518D+01 -.802533428739D-08
    -.127862468842D-09  .100000000000D+01  .171000000000D+04  .000000000000D+00
     .340000000000D+01  .000000000000D+00 -.558793544769D-08  .104000000000D+03
     .511206000000D+06  .400000000000D+01
12 12 10 20  0  0  0.0  .970833934844D-04  .204636307899D-11  .000000000000D+00
     .590000000000D+02 -.109343750000D+03  .375872799468D-08 -.179885347301D+01
    -.555999577045D-05  .397716462612D-02  .907108187675D-05  .515370215607D+04
     .518400000000D+06 -.502914190292D-07  .476295064470D+00 -.931322574615D-08
     .981777259581D+00  .214625000000D+03  .147261671411D+00 -.777210945384D-08
    -.278583032673D-10  .100000000000D+01  .171000000000D+04  .000000000000D+00
     .240000000000D+01  .000000000000D+00 -.121071934700D-07  .590000000000D+02
     .511206000000D+06  .400000000000D+01
13 12 10 20  0  0  0.0  .173209235072D-03 -.261479726760D-11  .000000000000D+00
     .320000000000D+02  .968750000000D+02  .396873674239D-08  .857743753156D+00
     .486895442009D-05  .477813696489D-02  .681169331074D-05  .515360827446D+04
     .518400000000D+06 -.409781932831D-07 -.154971785702D+01 -.106170773506D-06
     .983834378411D+00  .259593750000D+03  .207908405353D+01 -.794211653532D-08
     .350014579512D-10  .100000000000D+01  .171000000000D+04  .000000000000D+00
     .240000000000D+01  .000000000000D+00 -.111758708954D-07  .320000000000D+02
     .511206000000D+06  .400000000000D+01
14 12 10 20  0  0  0.0  .215166248381D-03  .795807864051D-12  .000000000000D+00
     .510000000000D+02  .114687500000D+03  .416124476112D-08  .109012748837D+01
     .596418976784D-05  .684546667617D-02  .792741775513D-05  .515366207314D+04
     .518400000000D+06 -.987201929092D-07 -.157744655635D+01  .409781932831D-07
     .976612351230D+00  .236906250000D+03 -.203298309562D+01 -.810069456930D-08
     .714315468392D-12  .100000000000D+01  .171000000000D+04  .000000000000D+00
     .240000000000D+01  .000000000000D+00 -.884756445885D-08  .510000000000D+02
     .511206000000D+06  .400000000000D+01
15 12 10 20  0  0  0.0 -.976803712547D-04 -.795807864051D-12  .000000000000D+00
     .830000000000D+02  .117593750000D+03  .490484716371D-08  .683929918186D+00
     .612996518612D-05  .479953840841D-02  .695511698723D-05  .515365600014D+04
     .518400000000D+06  .689178705215D-07 -.167011580136D+01  .372529029846D-07
     .943388540994D+00  .231562500000D+03  .407197702904D-01 -.837820612877D-08
    -.596453416107D-10  .100000000000D+01  .171000000000D+04  .000000000000D+00
     .240000000000D+01  .000000000000D+00 -.102445483208D-07  .830000000000D+02
     .511206000000D+06  .400000000000D+01
16 12 10 20  0  0  0.0 -.248218420893D-03 -.682121026330D-12  .000000000000D+00
     .860000000000D+02 -.105406250000D+03  .381765902082D-08  .225307379416D+01
    -.541470944881D-05  .652521697339D-02  .820122659206D-05  .515377150536D+04
     .518400000000D+06 -.130385160446D-07  .494536021765D+00  .186264514923D-08
     .982544402118D+00  .235781250000D+03  .289308142274D-01 -.775067998979D-08
    -.104647216119D-09  .100000000000D+01  .171000000000D+04  .000000000000D+00
     .240000000000D+01  .000000000000D+00 -.977888703346D-08  .860000000000D+02
     .511206000000D+06  .400000000000D+01
17 12 10 20  0  0  0.0  .863727182150D-04 -.329691829393D-11  .000000000000D+00
     .590000000000D+02 -.790625000000D+01  .447447209401D-08  .134370036603D+01
    -.447034835815D-06  .764110928867D-02  .945851206779D-05  .515375038910D+04
     .518400000000D+06 -.158324837685D-06  .153359807681D+01  .204890966415D-07
     .963478107405D+00  .196375000000D+03 -.229578949527D+01 -.804997817105D-08
     .436803908922D-09  .100000000000D+01  .171000000000D+04  .000000000000D+00
     .340000000000D+01  .000000000000D+00 -.107102096081D-07  .590000000000D+02
     .511206000000D+06  .400000000000D+01
18 12 10 20  0  0  0.0  .220506452024D-03  .181898940355D-11  .000000000000D+00
     .720000000000D+02  .227812500000D+02  .517235830663D-08  .279918884760D+01
     .107102096081D-05  .136248583440D-01  .100657343864D-04  .515373966980D+04
     .518400000000D+06  .465661287308D-07 -.268716087056D+01 -.229105353355D-06
     .929042816671D+00  .165468750000D+03 -.213850305922D+01 -.801676250177D-08
    -.483948729836D-09  .100000000000D+01  .171000000000D+04  .000000000000D+00
     .240000000000D+01  .000000000000D+00 -.107102096081D-07  .720000000000D+02
     .511206000000D+06  .400000000000D+01
